[
    {
        "Altitude(m)": 569314.509245959,
        "Argument of Periapsis(deg)": 0.0,
        "Eccentricity": 0.0,
        "Inclination(deg)": 53.0,
        "Latitude(deg)": -46.77316970594753,
        "Longitude(deg)": 122.90595468552324,
        "Mean Anomaly(deg)": -114.54549999999998,
        "RAAN(deg)": 350.0,
        "Satellite Name": "Starlink Shell 1 1555",
        "Satellite Number": 1555,
        "Semi-Major Axis(m)": 6931778.249405717,
        "Time(s)": 0
    },
    {
        "Altitude(m)": 569436.0070185927,
        "Argument of Periapsis(deg)": 0.00034857847951123687,
        "Eccentricity": 0.0,
        "Inclination(deg)": 53.0,
        "Latitude(deg)": -47.071984639377284,
        "Longitude(deg)": 123.66655294576064,
        "Mean Anomaly(deg)": -113.91866879644326,
        "RAAN(deg)": 349.99948122992254,
        "Satellite Name": "Starlink Shell 1 1555",
        "Satellite Number": 1555,
        "Semi-Major Axis(m)": 6931778.249405717,
        "Time(s)": 10
    },
    {
        "Altitude(m)": 569554.9819769162,
        "Argument of Periapsis(deg)": 0.0006971569590224737,
        "Eccentricity": 0.0,
        "Inclination(deg)": 53.0,
        "Latitude(deg)": -47.365104532801624,
        "Longitude(deg)": 124.43605879940121,
        "Mean Anomaly(deg)": -113.29183759288658,
        "RAAN(deg)": 349.9989624598451,
        "Satellite Name": "Starlink Shell 1 1555",
        "Satellite Number": 1555,
        "Semi-Major Axis(m)": 6931778.249405717,
        "Time(s)": 20
    },
    {
        "Altitude(m)": 569671.3870207729,
        "Argument of Periapsis(deg)": 0.0010457354385337105,
        "Eccentricity": 0.0,
        "Inclination(deg)": 53.0,
        "Latitude(deg)": -47.652408857226504,
        "Longitude(deg)": 125.2144870758024,
        "Mean Anomaly(deg)": -112.66500638932989,
        "RAAN(deg)": 349.9984436897676,
        "Satellite Name": "Starlink Shell 1 1555",
        "Satellite Number": 1555,
        "Semi-Major Axis(m)": 6931778.249405717,
        "Time(s)": 30
    },
    {
        "Altitude(m)": 569785.1760433522,
        "Argument of Periapsis(deg)": 0.0013943139180449475,
        "Eccentricity": 0.0,
        "Inclination(deg)": 53.0,
        "Latitude(deg)": -47.93377626625496,
        "Longitude(deg)": 126.0018431055978,
        "Mean Anomaly(deg)": -112.03817518577314,
        "RAAN(deg)": 349.9979249196901,
        "Satellite Name": "Starlink Shell 1 1555",
        "Satellite Number": 1555,
        "Semi-Major Axis(m)": 6931778.249405717,
        "Time(s)": 40
    },
    {
        "Altitude(m)": 569896.3039513304,
        "Argument of Periapsis(deg)": 0.0017428923975561844,
        "Eccentricity": 0.0,
        "Inclination(deg)": 53.0,
        "Latitude(deg)": -48.20908473574225,
        "Longitude(deg)": 126.7981211633484,
        "Mean Anomaly(deg)": -111.4113439822165,
        "RAAN(deg)": 349.9974061496127,
        "Satellite Name": "Starlink Shell 1 1555",
        "Satellite Number": 1555,
        "Semi-Major Axis(m)": 6931778.249405717,
        "Time(s)": 50
    },
    {
        "Altitude(m)": 570004.7266845962,
        "Argument of Periapsis(deg)": 0.002091470877067421,
        "Eccentricity": 0.0,
        "Inclination(deg)": 53.0,
        "Latitude(deg)": -48.47821171428466,
        "Longitude(deg)": 127.60330442522833,
        "Mean Anomaly(deg)": -110.7845127786598,
        "RAAN(deg)": 349.99688737953517,
        "Satellite Name": "Starlink Shell 1 1555",
        "Satellite Number": 1555,
        "Semi-Major Axis(m)": 6931778.249405717,
        "Time(s)": 60
    },
    {
        "Altitude(m)": 570110.4012354971,
        "Argument of Periapsis(deg)": 0.0024400493565786582,
        "Eccentricity": 0.0,
        "Inclination(deg)": 53.0,
        "Latitude(deg)": -48.74103428465939,
        "Longitude(deg)": 128.4173649322598,
        "Mean Anomaly(deg)": -110.15768157510296,
        "RAAN(deg)": 349.9963686094577,
        "Satellite Name": "Starlink Shell 1 1555",
        "Satellite Number": 1555,
        "Semi-Major Axis(m)": 6931778.249405717,
        "Time(s)": 70
    },
    {
        "Altitude(m)": 570213.2856676076,
        "Argument of Periapsis(deg)": 0.002788627836089895,
        "Eccentricity": 0.0,
        "Inclination(deg)": 53.0,
        "Latitude(deg)": -48.997429336269576,
        "Longitude(deg)": 129.24026204989693,
        "Mean Anomaly(deg)": -109.53085037154631,
        "RAAN(deg)": 349.99584983938024,
        "Satellite Name": "Starlink Shell 1 1555",
        "Satellite Number": 1555,
        "Semi-Major Axis(m)": 6931778.249405717,
        "Time(s)": 80
    },
    {
        "Altitude(m)": 570313.3391340357,
        "Argument of Periapsis(deg)": 0.0031372063156011316,
        "Eccentricity": 0.0,
        "Inclination(deg)": 53.0,
        "Latitude(deg)": -49.24727374858117,
        "Longitude(deg)": 130.0719424536451,
        "Mean Anomaly(deg)": -108.90401916798966,
        "RAAN(deg)": 349.9953310693028,
        "Satellite Name": "Starlink Shell 1 1555",
        "Satellite Number": 1555,
        "Semi-Major Axis(m)": 6931778.249405717,
        "Time(s)": 90
    },
    {
        "Altitude(m)": 570410.5218952432,
        "Argument of Periapsis(deg)": 0.0034857847951123688,
        "Eccentricity": 0.0,
        "Inclination(deg)": 53.0,
        "Latitude(deg)": -49.49044458545297,
        "Longitude(deg)": 130.91234013204243,
        "Mean Anomaly(deg)": -108.27718796443285,
        "RAAN(deg)": 349.99481229922526,
        "Satellite Name": "Starlink Shell 1 1555",
        "Satellite Number": 1555,
        "Semi-Major Axis(m)": 6931778.249405717,
        "Time(s)": 100
    },
    {
        "Altitude(m)": 570504.7953363641,
        "Argument of Periapsis(deg)": 0.003834363274623606,
        "Eccentricity": 0.0,
        "Inclination(deg)": 53.0,
        "Latitude(deg)": -49.72681930017749,
        "Longitude(deg)": 131.76137489857243,
        "Mean Anomaly(deg)": -107.65035676087611,
        "RAAN(deg)": 349.9942935291478,
        "Satellite Name": "Starlink Shell 1 1555",
        "Satellite Number": 1555,
        "Semi-Major Axis(m)": 6931778.249405717,
        "Time(s)": 110
    },
    {
        "Altitude(m)": 570596.1219840265,
        "Argument of Periapsis(deg)": 0.004182941754134842,
        "Eccentricity": 0.0,
        "Inclination(deg)": 53.0,
        "Latitude(deg)": -49.95627595096182,
        "Longitude(deg)": 132.61895244289963,
        "Mean Anomaly(deg)": -107.02352555731947,
        "RAAN(deg)": 349.99377475907033,
        "Satellite Name": "Starlink Shell 1 1555",
        "Satellite Number": 1555,
        "Semi-Major Axis(m)": 6931778.249405717,
        "Time(s)": 120
    },
    {
        "Altitude(m)": 570684.4655226847,
        "Argument of Periapsis(deg)": 0.004531520233646079,
        "Eccentricity": 0.0,
        "Inclination(deg)": 53.0,
        "Latitude(deg)": -50.178693426472925,
        "Longitude(deg)": 133.4849644133819,
        "Mean Anomaly(deg)": -106.39669435376277,
        "RAAN(deg)": 349.9932559889928,
        "Satellite Name": "Starlink Shell 1 1555",
        "Satellite Number": 1555,
        "Semi-Major Axis(m)": 6931778.249405717,
        "Time(s)": 130
    },
    {
        "Altitude(m)": 570769.79081041,
        "Argument of Periapsis(deg)": 0.0048800987131573164,
        "Eccentricity": 0.0,
        "Inclination(deg)": 53.0,
        "Latitude(deg)": -50.39395168096957,
        "Longitude(deg)": 134.35928702295618,
        "Mean Anomaly(deg)": -105.76986315020598,
        "RAAN(deg)": 349.9927372189154,
        "Satellite Name": "Starlink Shell 1 1555",
        "Satellite Number": 1555,
        "Semi-Major Axis(m)": 6931778.249405717,
        "Time(s)": 140
    },
    {
        "Altitude(m)": 570852.0638941971,
        "Argument of Periapsis(deg)": 0.005228677192668553,
        "Eccentricity": 0.0,
        "Inclination(deg)": 53.0,
        "Latitude(deg)": -50.601931978437754,
        "Longitude(deg)": 135.24178120919424,
        "Mean Anomaly(deg)": -105.14303194664927,
        "RAAN(deg)": 349.99221844883795,
        "Satellite Name": "Starlink Shell 1 1555",
        "Satellite Number": 1555,
        "Semi-Major Axis(m)": 6931778.249405717,
        "Time(s)": 150
    },
    {
        "Altitude(m)": 570931.2520247203,
        "Argument of Periapsis(deg)": 0.00557725567217979,
        "Eccentricity": 0.0,
        "Inclination(deg)": 53.0,
        "Latitude(deg)": -50.802517145030286,
        "Longitude(deg)": 136.13229284076093,
        "Mean Anomaly(deg)": -104.51620074309258,
        "RAAN(deg)": 349.9916996787604,
        "Satellite Name": "Starlink Shell 1 1555",
        "Satellite Number": 1555,
        "Semi-Major Axis(m)": 6931778.249405717,
        "Time(s)": 160
    },
    {
        "Altitude(m)": 571007.3236705732,
        "Argument of Periapsis(deg)": 0.0059258341516910265,
        "Eccentricity": 0.0,
        "Inclination(deg)": 53.0,
        "Latitude(deg)": -50.9955918289947,
        "Longitude(deg)": 137.03065146247846,
        "Mean Anomaly(deg)": -103.88936953953579,
        "RAAN(deg)": 349.991180908683,
        "Satellite Name": "Starlink Shell 1 1555",
        "Satellite Number": 1555,
        "Semi-Major Axis(m)": 6931778.249405717,
        "Time(s)": 170
    },
    {
        "Altitude(m)": 571080.2485319705,
        "Argument of Periapsis(deg)": 0.006274412631202263,
        "Eccentricity": 0.0,
        "Inclination(deg)": 53.0,
        "Latitude(deg)": -51.18104276716415,
        "Longitude(deg)": 137.93667060973797,
        "Mean Anomaly(deg)": -103.26253833597909,
        "RAAN(deg)": 349.9906621386055,
        "Satellite Name": "Starlink Shell 1 1555",
        "Satellite Number": 1555,
        "Semi-Major Axis(m)": 6931778.249405717,
        "Time(s)": 180
    }
]